#dP2023 12 22  0  0  0.00000000      96 __u+U IGS20 EXT  IAC
## 2293 432000.00000000   900.00000000 60300 0.0000000000000
+  119   C06C07C08C09C10C11C12C13C14C16C19C20C21C22C23C24C25
+        C26C27C28C29C30C32C33C34C35C36C37C38C39C40C41C42C43
+        C44C45C46E02E03E04E05E07E08E09E10E11E12E13E14E15E18
+        E19E21E24E25E26E27E30E31E33E34E36G01G02G03G04G05G07
+        G08G09G10G11G12G13G14G15G16G17G18G19G20G21G22G23G24
+        G25G26G27G28G29G30G31G32J02J03J04R01R02R03R04R05R07
+        R08R09R11R12R13R14R15R16R17R18R19R20R21R22R24R25R26
++         9 11 10 10 10  9  8 11  8  9  8  9  9  8  9  9  9
++         8  9  9  9  9  9  8  9  8  8  9 10  8  9  8  8  9
++         8  8  9  8  7  8  7  7  7  7  8  7  8  8  8  9  9
++         8  8  8  8  7  9  8  8  7  9  8  8  8  7  8  8  8
++         8  8  8  7  7  7  8  7  7  8  8  7  9  8  9  8  7
++         8  8 10  7  8  7  7  8 10  9 10  8  8  7  8  9  8
++         9  9  9  8  9  8  9  8  9  8  9  7  8  9  8  8  8
%c M  cc GPS ccc cccc cccc cccc cccc ccccc ccccc ccccc ccccc
%c cc cc ccc ccc cccc cccc cccc cccc ccccc ccccc ccccc ccccc
%f  0.0000000  0.000000000  0.00000000000  0.000000000000000
%f  0.0000000  0.000000000  0.00000000000  0.000000000000000
%i    0    0    0    0      0      0      0      0         0
%i    0    0    0    0      0      0      0      0         0
/* IAC                                ULTRA-RAPID PREDICTION
/* S/V CLOCKS ARE ALIGNED TO GNSS TIME                      
/* G:C1WC2W R:C1PC2P E:C1XC5X C:C2IC6I J:C1CC2S             
/* PCV:IGS20_2290 OL/AL:FES2004  NONE     YN ORB:CoN CLK:CoN
*  2023 12 22 20 30  0.00000000
PC06 -18843.924255  35247.382550 -13843.859461    221.909773
PC07  -2111.934282  36615.925588 -20575.574780   -516.857070
PC08  -6555.965422  19459.092203  36826.670186    163.489904
PC09 -10728.473582  33725.324772 -22932.460538   -252.443931
PC10   4199.794842  38642.423872 -15297.832124    -63.625192
PC11  16134.630033   1567.632284  22793.287471    319.802672
PC12   4640.459934  19725.511173  19232.090867    817.930251
PC13   -171.610873  22003.143548  36147.056089    398.859293
PC14  20583.389518  11188.530120 -15112.272320   -193.170063
PC16 -20117.704233  35016.506190 -12465.201711   -240.317804
PC19 -18516.381476  -1752.575356  20830.980896   -948.337032
PC20 -19744.188394 -17761.525686   8617.366380      4.795148
PC21   9022.837629  24442.698384   9982.477154   -966.501312
PC22  -6585.075646  16181.391209  21751.630209   -176.465383
PC23  18780.656957 -13253.660187  15825.326890   -800.033641
PC24  20739.675775   9670.294938 -16014.398694    717.887641
PC25  27673.937118  -3650.807938    515.273765    284.217478
PC26   2721.212412  16106.900181 -22647.539667   -223.982637
PC27   1601.128752 -24681.082928 -12928.524874    245.973831
PC28  13412.506470 -24336.786609   2583.103440    186.230881
PC29 -18304.793795   8989.136223 -19050.571187    218.066793
PC30 -11829.579755 -12063.244109 -22209.153072    -11.176798
PC32  -9161.256945 -24369.215921 -10045.076183   -545.338737
PC33  18571.788787   1720.419127 -20753.119621   -941.778043
PC34  12700.453932  10605.320803  22466.572212    330.675821
PC35 -12494.219482  24845.360220  -2556.349576    474.663034
PC36 -27786.235987   2496.058473    212.784843    -82.392185
PC37  -1580.139127 -16237.023985  22643.070096   -931.615472
PC38 -15362.914152  19676.152878  33996.437151    125.731255
PC39 -21984.001787  35470.855703  -6735.839554     -6.256766
PC40  -6088.769241  33723.646267 -24385.564910    -48.926820
PC41   7153.515957 -15619.658661 -21941.001083   -874.800647
PC42  19345.129773  18790.316298  -7088.858148   -476.764786
PC43  18343.186749  -7948.417423  19456.113676     53.364577
PC44   -759.350326  24856.915071  12683.541867    330.874878
PC45 -18380.967839  13321.301433 -16222.360951    -57.140582
PC46 -21470.999347  -9037.786622  15319.502582   -109.617944
PE02 -22716.250867   2537.487050 -18802.739553     88.809057
PE03 -15311.778873  11561.203229  22530.437279    -81.903117
PE04   5541.208996 -27473.915224  -9513.048025   -286.168503
PE05 -16089.575424 -10892.902230  22327.293400   4703.048957
PE07   7202.609947  27364.328601  -8681.757889    -94.434816
PE08  -5851.530767  27197.438024  10098.372149   -196.283088
PE09  -7088.791047 -27428.021081   8591.698238   -272.432676
PE10   6062.126959 -19888.172031 -21069.023880   -588.372524
PE11  -5150.229640 -15587.587431 -24630.911762   3273.348456
PE12  15115.291641 -20764.727277 -14696.593799   -830.170762
PE13   4368.264142  15921.758018  24579.700498    -19.738071
PE14 -19488.551333  -4009.739867 -23163.145010    -10.826229
PE15 -15567.313195  20725.151457  14311.325427    -76.111058
PE18  15063.564939 -14216.388853  17373.244709    124.813487
PE19  15850.089420  -8873.521675 -23367.220541   -962.515615
PE21  26936.778925  11895.124212   3055.774646   -570.151599
PE24 -15109.089220 -20194.532339  15454.650708   -500.449383
PE25 -26856.834392 -12136.639980  -2691.494429     -1.593798
PE26  21917.194731   1470.350835  19854.117926    317.357968
PE27  15620.795150  20082.943667 -15143.357701   -230.677198
PE30  -5157.710705  16241.831769 -24217.888986   -763.333053
PE31   4790.803028 -16336.737574  24216.041999    -12.231522
PE33  26198.734302 -12933.365804   4781.306811      4.664066
PE34 -26072.146836  13361.193400  -4192.776296    -84.815817
PE36 -21444.072514  -1878.151779 -20309.730685   -161.363365
PG01   6909.491782 -18215.039143 -18243.807725    164.405024
PG02  12715.808355 -19763.056823 -11657.095860   -511.817589
PG03   -669.112000 -16273.990811 -21146.378105     73.659144
PG04   1459.847133 -26331.366989  -2459.501782    246.473637
PG05 -12171.941509  10309.140166  21077.503142   -155.120387
PG07  -9540.336355 -12499.769446  21901.151841    -18.549805
PG08   5914.680917 -23260.251267  10818.339918   -158.320349
PG09  -7647.108967 -23895.909943   8540.423073     34.993713
PG10  24306.101676  10846.499796  -2380.107813    -66.365474
PG11 -23756.132624  11533.746593  -2545.878245   -511.194670
PG12  -1020.127585  16523.364581 -21067.860828   -460.169826
PG13 -13042.895162  15573.240021  16791.447956    608.338085
PG14 -23010.940354 -13439.842927    796.495709    278.133418
PG15  -3202.510216  23898.054898  10405.368739    109.593190
PG16  18230.559237  -3858.154325  18775.795016   -399.099343
PG17 -12541.687283 -13431.966150 -18690.306366    721.510745
PG18  10314.558695  11084.647216  21849.715363   -513.153846
PG19 -14786.090332  -3986.859848 -21916.450563    416.124072
PG20 -22382.876837   3249.856646  13836.091603    395.321256
PG21  15386.102271 -19142.994988  -8277.017600    140.752827
PG22 -23542.563021  -9862.432292  -6337.918064     61.382885
PG23  18850.212241  16272.656742   9520.068590    120.955947
PG24 -11705.775904  20495.146237 -12158.772850   -398.871090
PG25  11822.018029  18371.627153 -15622.892583    482.498067
PG26  24001.143906    933.254828  11583.624903    207.032164
PG27  12897.399248 -12042.390117  19451.717215    -86.219111
PG28  21783.549034  -2181.542101 -15057.989239    -77.190919
PG29   4684.970139  24804.912142   8047.769785   -609.536984
PG30 -18588.425468  -4539.554483  18647.583682   -454.404422
PG31  24306.583686  -8396.943124  -7654.119391   -226.796752
PG32  14543.640484   9254.770914 -20072.070842   -598.767871
PJ02 -25749.143474  16054.322625 -24644.834241     -0.705047
PJ03 -26781.869194  32745.951242   4542.098987    -13.084735
PJ04 -25330.241524  27053.133336  26003.358573     74.820473
PR01  -2945.377163  15476.604644  20059.134243     72.774677
PR02   7580.502746  23625.019381   6124.401208    -22.336954
PR03  14182.711716  18033.017784 -11176.271122     91.421531
PR04  12520.123062   2890.564902 -22011.937977    216.475118
PR05   4374.885965 -13876.728846 -20933.476951    124.224483
PR07 -14289.920093 -17325.645977  12078.952650     71.928877
PR08 -12574.558610  -2438.360753  22108.911492    -73.763883
PR09  -5111.295259 -11360.549204  22283.954559    160.211056
PR11 -25316.595369   -387.523594  -3153.311708   -222.901159
PR12 -14473.515292   8124.326152 -19344.226509     34.771771
PR13   2359.329318  11169.026693 -22831.318004    -42.538727
PR14  20865.164805   7650.701815 -12501.646889     25.820365
PR15  25087.793750   -148.427416   4617.085499     83.747538
PR16  14676.715850  -7997.722960  19259.959374     21.797076
PR17   8323.654551   6586.762955  23209.635948     45.807951
PR18  16184.010669  -8678.151563  17701.661417    118.218127
PR19  16932.081281 -18510.513387   4637.151427   -259.247840
PR20   6184.561815 -19237.633632 -15524.657263   -105.590885
PR21  -8503.368191  -6179.436931 -23233.126463    -63.039432
PR22 -16958.001552   8975.467870 -16783.789655     99.552154
PR24  -4711.236022  19429.895770  15856.617792    -36.955328
PR25  -8280.366760  -7110.059937 -23044.603583      4.418898
PR26 -12834.335797  -3198.480107  21832.902530    -22.720954
EOF
